[{"OBJECT_NAME":"STARLINK-5954","OBJECT_ID":"2023-058B","EPOCH":"2026-03-09T23:18:39.687552","MEAN_MOTION":15.05646811,"ECCENTRICITY":0.00017981,"INCLINATION":97.6038,"RA_OF_ASC_NODE":71.5646,"ARG_OF_PERICENTER":87.3286,"MEAN_ANOMALY":272.8146,"EPHEMERIS_TYPE":0,"CLASSIFICATION_TYPE":"U","NORAD_CAT_ID":56318,"ELEMENT_SET_NO":999,"REV_AT_EPOCH":15789,"BSTAR":6.425381e-6,"MEAN_MOTION_DOT":3.2e-7,"MEAN_MOTION_DDOT":0},{"OBJECT_NAME":"SL-19 R\/B","OBJECT_ID":"2009-059D","EPOCH":"2026-03-09T23:12:06.356736","MEAN_MOTION":14.95113684,"ECCENTRICITY":0.01234897,"INCLINATION":98.3546,"RA_OF_ASC_NODE":329.2242,"ARG_OF_PERICENTER":331.1085,"MEAN_ANOMALY":28.3333,"EPHEMERIS_TYPE":0,"CLASSIFICATION_TYPE":"U","NORAD_CAT_ID":36039,"ELEMENT_SET_NO":999,"REV_AT_EPOCH":88779,"BSTAR":0.00015970397,"MEAN_MOTION_DOT":1.961e-5,"MEAN_MOTION_DDOT":0}]
